STARLINK-37831          
1 69489U 26131M   26176.16667823 -.00105322  00000+0 -55461-3 0  9998
2 69489  97.2829 196.9261 0000698  80.8760 338.6436 15.80862705  1951
STARLINK-37879          
1 69490U 26131N   26176.16667823 -.00047097  00000+0 -24627-3 0  9994
2 69490  97.2831 196.9294 0001104 108.9101 314.9006 15.80833706  3294
STARLINK-37856          
1 69491U 26131P   26176.16667823 -.00149991  00000+0 -79441-3 0  9995
2 69491  97.2837 196.9111 0001267  87.3714 292.9324 15.80854652  3357
STARLINK-37568          
1 69492U 26131Q   26176.16667823 -.00071987  00000+0 -37755-3 0  9997
2 69492  97.2830 196.9324 0001155  75.4328 356.9053 15.80853039  3383
STARLINK-37855          
1 69493U 26131R   26176.16667823 -.00073087  00000+0 -38332-3 0  9993
2 69493  97.2836 196.9176 0001120  75.4707 321.8946 15.80856233  3356
STARLINK-37854          
1 69494U 26131S   26176.16667823  .00035272  00000+0  18441-3 0  9995
2 69494  97.2834 196.9159 0001046 104.4800 286.2669 15.80783423  3356
STARLINK-37789          
1 69495U 26131T   26176.16667823  .00015642  00000+0  82260-4 0  9996
2 69495  97.2831 196.9377 0000755 106.8161 338.3603 15.80815010  3375
STARLINK-37839          
1 69496U 26131U   26176.16667823 -.00087139  00000+0 -45766-3 0  9998
2 69496  97.2834 196.9209 0001356  88.3958 316.2129 15.80867062  3359
STARLINK-37798          
1 69497U 26131V   26176.16667823  .00011124  00000+0  58737-4 0  9991
2 69497  97.2831 196.9401 0001265  92.2611 357.1861 15.80817311  3359
STARLINK-37853          
1 69498U 26131W   26176.16667823 -.00131508  00000+0 -69342-3 0  9996
2 69498  97.2828 196.9494 0000817  83.2691  27.5040 15.80904644  3351
STARLINK-37849          
1 69499U 26131X   26176.16667823  .00048703  00000+0  25377-3 0  9999
2 69499  97.2828 196.9474 0001099  97.1784   9.3590 15.80799975  3379
STARLINK-37835          
1 69500U 26131Y   26176.16667823 -.00032649  00000+0 -17017-3 0  9998
2 69500  97.2831 196.9437 0001225  85.6637  12.3251 15.80839494  2272
STARLINK-37843          
1 69501U 26131Z   26176.16667823 -.00067522  00000+0 -35399-3 0  9990
2 69501  97.2826 196.9452 0001192  75.8856  26.3755 15.80847374  3351
2026-132A               
1 69502U 26132A   26176.16518911  .00001112  00000+0  96380-4 0  9994
2 69502  97.6890 239.7357 0013087 240.3481 119.6439 14.99057369  1973
2026-132B               
1 69503U 26132B   26176.16440660  .00000812  00000+0  71608-4 0  9992
2 69503  97.6921 239.7420 0012990 242.4948 117.4955 14.99143432  1979
BRO-22                  
1 69504U 26132C   26176.15896008  .00000677  00000+0  59491-4 0  9998
2 69504  97.6856 239.7369 0014607 254.4512 105.5099 14.99765817  1970
2026-132D               
1 69505U 26132D   26175.13830056  .00002526  00000+0  18753-3 0  9997
2 69505  97.6864 238.7644 0017027 266.1335  93.7944 15.03851593  1821
VERTECS                 
1 69506U 26132E   26176.14916036  .00002574  00000+0  20659-3 0  9994
2 69506  97.6888 239.7576 0013179 276.5400  83.4323 15.00907776  1969
2026-132F               
1 69507U 26132F   26174.40988128  .00000351  00000+0  31065-4 0  9998
2 69507  97.6834 238.0364 0014744 276.7012  83.2535 15.02397057  1700
STARLINK-37536          
1 69508U 26133A   26176.16667823  .00075208  00000+0  38212-3 0  9994
2 69508  53.1588 282.1185 0001131  79.0153 104.8487 15.80824202  3252
STARLINK-37341          
1 69509U 26133B   26176.16667823 -.01944926  00000+0 -10229-1 0  9996
2 69509  53.1587 282.0934 0001496  84.9767 111.1971 15.83027268  3252
STARLINK-36536          
1 69510U 26133C   26176.16667823 -.01935996  00000+0 -98659-2 0  9999
2 69510  53.1585 282.0649 0000991  77.5785 132.2991 15.83676308  3196
STARLINK-37420          
1 69511U 26133D   26176.16667823 -.01413789  00000+0 -76337-2 0  9990
2 69511  53.1583 282.0183 0001275  77.0203 155.0281 15.82020071  3143
STARLINK-37511          
1 69512U 26133E   26176.16667823 -.00567597  00000+0 -27417-2 0  9992
2 69512  53.1585 282.0428 0000919  73.8991 146.6062 15.83250167  3145
STARLINK-37552          
1 69513U 26133F   26176.16667823 -.01798532  00000+0 -92058-2 0  9992
2 69513  53.1579 281.9915 0000929  81.5697 163.6890 15.83363398  3147
STARLINK-37607          
1 69514U 26133G   26176.16667823 -.01874450  00000+0 -98208-2 0  9990
2 69514  53.1579 281.9753 0000706  94.6752 158.1160 15.83000557  3142
STARLINK-37232          
1 69515U 26133H   26176.16667823 -.01923937  00000+0 -89941-2 0  9990
2 69515  53.1568 281.9444 0000840  68.4566 199.4594 15.85436042  3142
STARLINK-37323          
1 69516U 26133J   26176.16667823 -.01704477  00000+0 -86289-2 0  9999
2 69516  53.1576 281.9281 0000927  85.7997 189.7359 15.83928297  3144
STARLINK-37357          
1 69517U 26133K   26176.16667823 -.01963603  00000+0 -93860-2 0  9991
2 69517  53.1571 281.9066 0000792  73.6939 212.1380 15.85044949  3143
STARLINK-37408          
1 69518U 26133L   26176.16667823 -.01693360  00000+0 -83273-2 0  9999
2 69518  53.1574 281.8902 0000887  74.5165 219.2733 15.84507137  3143
