OBJECT_NAME,OBJECT_ID,EPOCH,MEAN_MOTION,ECCENTRICITY,INCLINATION,RA_OF_ASC_NODE,ARG_OF_PERICENTER,MEAN_ANOMALY,EPHEMERIS_TYPE,CLASSIFICATION_TYPE,NORAD_CAT_ID,ELEMENT_SET_NO,REV_AT_EPOCH,BSTAR,MEAN_MOTION_DOT,MEAN_MOTION_DDOT
STARLINK-37831,2026-131M,2026-06-25T04:00:00.999072,15.80862705,.0000698,97.2829,196.9261,80.8760,338.6436,0,U,69489,999,195,-.55461E-3,-.105322E-2,0
STARLINK-37879,2026-131N,2026-06-25T04:00:00.999072,15.80833706,.0001104,97.2831,196.9294,108.9101,314.9006,0,U,69490,999,329,-.24627E-3,-.47097E-3,0
STARLINK-37856,2026-131P,2026-06-25T04:00:00.999072,15.80854652,.0001267,97.2837,196.9111,87.3714,292.9324,0,U,69491,999,335,-.79441E-3,-.149991E-2,0
STARLINK-37568,2026-131Q,2026-06-25T04:00:00.999072,15.80853039,.0001155,97.2830,196.9324,75.4328,356.9053,0,U,69492,999,338,-.37755E-3,-.71987E-3,0
STARLINK-37855,2026-131R,2026-06-25T04:00:00.999072,15.80856233,.000112,97.2836,196.9176,75.4707,321.8946,0,U,69493,999,335,-.38332E-3,-.73087E-3,0
STARLINK-37854,2026-131S,2026-06-25T04:00:00.999072,15.80783423,.0001046,97.2834,196.9159,104.4800,286.2669,0,U,69494,999,335,.18441E-3,.35272E-3,0
STARLINK-37789,2026-131T,2026-06-25T04:00:00.999072,15.80815010,.0000755,97.2831,196.9377,106.8161,338.3603,0,U,69495,999,337,.8226E-4,.15642E-3,0
STARLINK-37839,2026-131U,2026-06-25T04:00:00.999072,15.80867062,.0001356,97.2834,196.9209,88.3958,316.2129,0,U,69496,999,335,-.45766E-3,-.87139E-3,0
STARLINK-37798,2026-131V,2026-06-25T04:00:00.999072,15.80817311,.0001265,97.2831,196.9401,92.2611,357.1861,0,U,69497,999,335,.58737E-4,.11124E-3,0
STARLINK-37853,2026-131W,2026-06-25T04:00:00.999072,15.80904644,.0000817,97.2828,196.9494,83.2691,27.5040,0,U,69498,999,335,-.69342E-3,-.131508E-2,0
STARLINK-37849,2026-131X,2026-06-25T04:00:00.999072,15.80799975,.0001099,97.2828,196.9474,97.1784,9.3590,0,U,69499,999,337,.25377E-3,.48703E-3,0
STARLINK-37835,2026-131Y,2026-06-25T04:00:00.999072,15.80839494,.0001225,97.2831,196.9437,85.6637,12.3251,0,U,69500,999,227,-.17017E-3,-.32649E-3,0
STARLINK-37843,2026-131Z,2026-06-25T04:00:00.999072,15.80847374,.0001192,97.2826,196.9452,75.8856,26.3755,0,U,69501,999,335,-.35399E-3,-.67522E-3,0
2026-132A,2026-132A,2026-06-25T03:57:52.339104,14.99057369,.0013087,97.6890,239.7357,240.3481,119.6439,0,U,69502,999,197,.9638E-4,.1112E-4,0
2026-132B,2026-132B,2026-06-25T03:56:44.730240,14.99143432,.001299,97.6921,239.7420,242.4948,117.4955,0,U,69503,999,197,.71608E-4,.812E-5,0
BRO-22,2026-132C,2026-06-25T03:48:54.150912,14.99765817,.0014607,97.6856,239.7369,254.4512,105.5099,0,U,69504,999,197,.59491E-4,.677E-5,0
2026-132D,2026-132D,2026-06-24T03:19:09.168384,15.03851593,.0017027,97.6864,238.7644,266.1335,93.7944,0,U,69505,999,182,.18752529E-3,.2526E-4,0
VERTECS,2026-132E,2026-06-25T03:34:47.455104,15.00907776,.0013179,97.6888,239.7576,276.5400,83.4323,0,U,69506,999,196,.20659E-3,.2574E-4,0
2026-132F,2026-132F,2026-06-23T09:50:13.742592,15.02397057,.00147447,97.6834,238.0364,276.7012,83.2535,0,U,69507,999,170,.31064753E-4,.351E-5,0
STARLINK-37536,2026-133A,2026-06-25T04:00:00.999072,15.80824202,.0001131,53.1588,282.1185,79.0153,104.8487,0,U,69508,999,325,.38212E-3,.75208E-3,0
STARLINK-37341,2026-133B,2026-06-25T04:00:00.999072,15.83027268,.0001496,53.1587,282.0934,84.9767,111.1971,0,U,69509,999,325,-.10229E-1,-.1944926E-1,0
STARLINK-36536,2026-133C,2026-06-25T04:00:00.999072,15.83676308,.0000991,53.1585,282.0649,77.5785,132.2991,0,U,69510,999,319,-.98659E-2,-.1935996E-1,0
STARLINK-37420,2026-133D,2026-06-25T04:00:00.999072,15.82020071,.0001275,53.1583,282.0183,77.0203,155.0281,0,U,69511,999,314,-.76337E-2,-.1413789E-1,0
STARLINK-37511,2026-133E,2026-06-25T04:00:00.999072,15.83250167,.0000919,53.1585,282.0428,73.8991,146.6062,0,U,69512,999,314,-.27417E-2,-.567597E-2,0
STARLINK-37552,2026-133F,2026-06-25T04:00:00.999072,15.83363398,.0000929,53.1579,281.9915,81.5697,163.6890,0,U,69513,999,314,-.92058E-2,-.1798532E-1,0
STARLINK-37607,2026-133G,2026-06-25T04:00:00.999072,15.83000557,.0000706,53.1579,281.9753,94.6752,158.1160,0,U,69514,999,314,-.98208E-2,-.187445E-1,0
STARLINK-37232,2026-133H,2026-06-25T04:00:00.999072,15.85436042,.000084,53.1568,281.9444,68.4566,199.4594,0,U,69515,999,314,-.89941E-2,-.1923937E-1,0
STARLINK-37323,2026-133J,2026-06-25T04:00:00.999072,15.83928297,.0000927,53.1576,281.9281,85.7997,189.7359,0,U,69516,999,314,-.86289E-2,-.1704477E-1,0
STARLINK-37357,2026-133K,2026-06-25T04:00:00.999072,15.85044949,.0000792,53.1571,281.9066,73.6939,212.1380,0,U,69517,999,314,-.9386E-2,-.1963603E-1,0
STARLINK-37408,2026-133L,2026-06-25T04:00:00.999072,15.84507137,.0000887,53.1574,281.8902,74.5165,219.2733,0,U,69518,999,314,-.83273E-2,-.169336E-1,0
